TOMORROW-R2             
1 56962U 23084AG  26068.88846178  .00107013  00000+0  81619-3 0  9996
2 56962  97.5895 222.1734 0005114 248.1295 111.9424 15.71879583153326
STARLINK-11304 [DTC]    
1 61209U 24171K   26068.56592857 -.00000176  00000+0  34058-5 0  9991
2 61209  53.1590 176.5498 0000913  97.6521 262.4601 15.69698361 85295
