[{"OBJECT_NAME":"TOMORROW-R2","OBJECT_ID":"2023-084AG","EPOCH":"2026-03-09T21:19:23.098656","MEAN_MOTION":15.71879583,"ECCENTRICITY":0.00051142,"INCLINATION":97.5895,"RA_OF_ASC_NODE":222.1734,"ARG_OF_PERICENTER":248.1295,"MEAN_ANOMALY":111.9424,"EPHEMERIS_TYPE":0,"CLASSIFICATION_TYPE":"U","NORAD_CAT_ID":56962,"ELEMENT_SET_NO":999,"REV_AT_EPOCH":15332,"BSTAR":0.00081619373,"MEAN_MOTION_DOT":0.00107013,"MEAN_MOTION_DDOT":0},{"OBJECT_NAME":"STARLINK-11304 [DTC]","OBJECT_ID":"2024-171K","EPOCH":"2026-03-09T13:34:56.228448","MEAN_MOTION":15.69698361,"ECCENTRICITY":9.13e-5,"INCLINATION":53.159,"RA_OF_ASC_NODE":176.5498,"ARG_OF_PERICENTER":97.6521,"MEAN_ANOMALY":262.4601,"EPHEMERIS_TYPE":0,"CLASSIFICATION_TYPE":"U","NORAD_CAT_ID":61209,"ELEMENT_SET_NO":999,"REV_AT_EPOCH":8529,"BSTAR":3.4058e-6,"MEAN_MOTION_DOT":-1.76e-6,"MEAN_MOTION_DDOT":0}]
